H1 CPF 01  gfz 2021 06 23 00  6741 tandemx   
H2 1003001  6202 36605    2021 06 23 00 59 42 2021 06 28 00 00 42   120 1 1  0 0 0
H9
10 0 59388   3582.000000  0     118224.136  -2814391.576  -6293635.910
10 0 59388   3702.000000  0    -169129.378  -3586302.280  -5886546.719
10 0 59388   3822.000000  0    -466468.103  -4290891.522  -5376625.971
10 0 59388   3942.000000  0    -767340.339  -4915747.765  -4772691.327
10 0 59388   4062.000000  0   -1065017.134  -5449928.456  -4085214.930
10 0 59388   4182.000000  0   -1352636.329  -5884160.569  -3326151.901
10 0 59388   4302.000000  0   -1623353.600  -6211012.448  -2508740.168
10 0 59388   4422.000000  0   -1870497.530  -6425033.446  -1647274.512
10 0 59388   4542.000000  0   -2087724.980  -6522857.409   -756857.002
10 0 59388   4662.000000  0   -2269172.744  -6503265.711    146871.519
10 0 59388   4782.000000  0   -2409601.854  -6367207.104   1048012.935
10 0 59388   4902.000000  0   -2504530.394  -6117773.771   1930700.009
10 0 59388   5022.000000  0   -2550351.238  -5760133.837   2779385.077
10 0 59388   5142.000000  0   -2544431.294  -5301421.890   3579122.318
10 0 59388   5262.000000  0   -2485189.732  -4750590.787   4315837.019
10 0 59388   5382.000000  0   -2372153.952  -4118229.543   4976576.426
10 0 59388   5502.000000  0   -2205992.632  -3416351.620   5549738.684
10 0 59388   5622.000000  0   -1988523.704  -2658157.285   6025274.434
10 0 59388   5742.000000  0   -1722697.530  -1857778.859   6394857.814
10 0 59388   5862.000000  0   -1412556.628  -1030013.276   6652027.098
10 0 59388   5982.000000  0   -1063173.197   -190044.590   6792291.491
10 0 59388   6102.000000  0    -680566.228    646834.801   6813203.135
10 0 59388   6222.000000  0    -271597.914   1465501.597   6714398.058
10 0 59388   6342.000000  0     156149.501   2251274.763   6497602.353
10 0 59388   6462.000000  0     594514.049   2990178.744   6166603.471
10 0 59388   6582.000000  0    1034908.567   3669192.532   5727188.219
10 0 59388   6702.000000  0    1468487.465   4276482.377   5187047.229
10 0 59388   6822.000000  0    1886323.213   4801613.348   4555646.490
10 0 59388   6942.000000  0    2279589.623   5235735.727   3844066.149
10 0 59388   7062.000000  0    2639747.703   5571740.518   3064810.277
10 0 59388   7182.000000  0    2958730.566   5804386.444   2231589.321
10 0 59388   7302.000000  0    3229122.648   5930389.041   1359073.845
10 0 59388   7422.000000  0    3444327.268   5948468.264    462630.236
10 0 59388   7542.000000  0    3598719.412   5859357.273   -441957.197
10 0 59388   7662.000000  0    3687780.557   5665769.720  -1338772.801
10 0 59388   7782.000000  0    3708210.862   5372327.562  -2212057.389
10 0 59388   7902.000000  0    3658016.881   4985451.162  -3046492.469
10 0 59388   8022.000000  0    3536571.522   4513214.018  -3827473.903
10 0 59388   8142.000000  0    3344645.347   3965166.946  -4541368.028
10 0 59388   8262.000000  0    3084410.208   3352138.289  -5175746.683
10 0 59388   8382.000000  0    2759414.610   2686013.158  -5719597.755
10 0 59388   8502.000000  0    2374532.446   1979497.756  -6163506.863
10 0 59388   8622.000000  0    1935886.053   1245874.451  -6499809.243
10 0 59388   8742.000000  0    1450746.788    498752.642  -6722709.570
10 0 59388   8862.000000  0     927414.838   -248179.708  -6828372.398
10 0 59388   8982.000000  0     375077.567   -981402.342  -6814981.573
10 0 59388   9102.000000  0    -196348.766  -1687801.385  -6682766.140
10 0 59388   9222.000000  0    -776391.781  -2354896.771  -6433997.050
10 0 59388   9342.000000  0   -1354210.318  -2971058.714  -6072953.828
10 0 59388   9462.000000  0   -1918792.077  -3525708.446  -5605858.062
10 0 59388   9582.000000  0   -2459158.977  -4009500.027  -5040777.362
10 0 59388   9702.000000  0   -2964578.972  -4414482.545  -4387498.571
10 0 59388   9822.000000  0   -3424779.515  -4734237.411  -3657368.448
10 0 59388   9942.000000  0   -3830157.318  -4963987.535  -2863105.406
10 0 59388  10062.000000  0   -4171981.226  -5100676.541  -2018584.089
10 0 59388  10182.000000  0   -4442582.887  -5143014.965  -1138595.209
10 0 59388  10302.000000  0   -4635529.955  -5091491.864   -238584.793
10 0 59388  10422.000000  0   -4745777.020  -4948350.968    665622.120
10 0 59388  10542.000000  0   -4769790.281  -4717531.040   1558107.990
10 0 59388  10662.000000  0   -4705641.542  -4404570.719   2423152.765
10 0 59388  10782.000000  0   -4553069.299  -4016481.086   3245519.470
10 0 59388  10902.000000  0   -4313506.111  -3561589.681   4010729.655
10 0 59388  11022.000000  0   -3990071.161  -3049359.714   4705323.781
10 0 59388  11142.000000  0   -3587527.793  -2490188.664   5317099.267
10 0 59388  11262.000000  0   -3112209.536  -1895193.709   5835322.457
10 0 59388  11382.000000  0   -2571915.981  -1275988.235   6250914.001
10 0 59388  11502.000000  0   -1975779.680   -644451.912   6556604.048
10 0 59388  11622.000000  0   -1334106.295    -12499.975   6747053.064
10 0 59388  11742.000000  0    -658193.683    608140.556   6818937.515
10 0 59388  11862.000000  0      39866.875   1206147.272   6771004.496
10 0 59388  11982.000000  0     747406.568   1770808.619   6604092.539
10 0 59388  12102.000000  0    1451408.636   2292216.008   6321117.547
10 0 59388  12222.000000  0    2138746.940   2761437.551   5927024.424
10 0 59388  12342.000000  0    2796430.485   3170672.527   5428706.771
10 0 59388  12462.000000  0    3411851.448   3513384.713   4834892.932
10 0 59388  12582.000000  0    3973029.948   3784410.168   4155996.929
10 0 59388  12702.000000  0    4468850.200   3980038.117   3403942.257
10 0 59388  12822.000000  0    4889289.282   4098065.279   2591954.302
10 0 59388  12942.000000  0    5225624.061   4137817.030   1734325.115
10 0 59388  13062.000000  0    5470617.005   4100138.350    846158.418
10 0 59388  13182.000000  0    5618673.621   3987353.232    -56903.784
10 0 59388  13302.000000  0    5665967.184   3803193.386   -958965.797
10 0 59388  13422.000000  0    5610527.740   3552698.152  -1844166.627
10 0 59388  13542.000000  0    5452293.524   3242088.268  -2696966.540
10 0 59388  13662.000000  0    5193123.754   2878617.557  -3502424.737
10 0 59388  13782.000000  0    4836774.367   2470407.003  -4246463.601
10 0 59388  13902.000000  0    4388835.469   2026263.852  -4916115.043
10 0 59388  14022.000000  0    3856633.388   1555490.830  -5499740.568
10 0 59388  14142.000000  0    3249102.093   1067692.176  -5987224.961
10 0 59388  14262.000000  0    2576625.713    572579.342  -6370141.600
10 0 59388  14382.000000  0    1850855.947     79780.430  -6641886.011
10 0 59388  14502.000000  0    1084509.984   -401342.747  -6797778.867
10 0 59388  14622.000000  0     291149.319   -861868.624  -6835139.388
10 0 59388  14742.000000  0    -515056.630  -1293476.864  -6753324.632
10 0 59388  14862.000000  0   -1319576.634  -1688594.110  -6553739.254
10 0 59388  14982.000000  0   -2107773.598  -2040524.164  -6239814.873
10 0 59388  15102.000000  0   -2865165.014  -2343559.962  -5816956.727
10 0 59388  15222.000000  0   -3577684.081  -2593075.944  -5292460.873
10 0 59388  15342.000000  0   -4231941.005  -2785600.719  -4675400.845
10 0 59388  15462.000000  0   -4815477.732  -2918867.040  -3976481.459
10 0 59388  15582.000000  0   -5317010.554  -2991837.892  -3207863.051
10 0 59388  15702.000000  0   -5726656.680  -3004708.201  -2382957.288
10 0 59388  15822.000000  0   -6036138.382  -2958881.230  -1516196.585
10 0 59388  15942.000000  0   -6238959.262  -2856920.099   -622781.639
10 0 59388  16062.000000  0   -6330548.028  -2702474.734    281588.983
10 0 59388  16182.000000  0   -6308365.658  -2500185.974   1181001.150
10 0 59388  16302.000000  0   -6171972.185  -2255569.063   2059614.859
10 0 59388  16422.000000  0   -5923049.027  -1974878.840   2901952.795
10 0 59388  16542.000000  0   -5565379.915  -1664960.929   3693180.264
10 0 59388  16662.000000  0   -5104788.818  -1333092.419   4419374.196
10 0 59388  16782.000000  0   -4549035.461   -986815.743   5067770.444
10 0 59388  16902.000000  0   -3907676.346   -633771.693   5626986.590
10 0 59388  17022.000000  0   -3191892.584   -281534.085   6087219.962
10 0 59388  17142.000000  0   -2414286.451     62550.850   6440415.346
10 0 59388  17262.000000  0   -1588652.444    391514.944   6680399.533
10 0 59388  17382.000000  0    -729728.659    698906.380   6802982.900
10 0 59388  17502.000000  0     147067.429    978914.724   6806027.583
10 0 59388  17622.000000  0    1025915.085   1226479.806   6689482.095
10 0 59388  17742.000000  0    1890874.851   1437383.401   6455382.245
10 0 59388  17862.000000  0    2726176.753   1608321.315   6107817.517
10 0 59388  17982.000000  0    3516508.387   1736955.214   5652864.814
10 0 59388  18102.000000  0    4247298.720   1821943.321   5098487.385
10 0 59388  18222.000000  0    4904990.140   1862950.013   4454401.721
10 0 59388  18342.000000  0    5477298.157   1860634.594   3731914.410
10 0 59388  18462.000000  0    5953451.354   1816617.373   2943724.372
10 0 59388  18582.000000  0    6324401.409   1733424.836   2103699.675
10 0 59388  18702.000000  0    6583005.275   1614414.812   1226631.530
10 0 59388  18822.000000  0    6724169.110   1463683.081    327967.035
10 0 59388  18942.000000  0    6744952.470   1285954.551   -576470.290
10 0 59388  19062.000000  0    6644628.998   1086460.923  -1470769.012
10 0 59388  19182.000000  0    6424701.639    870807.115  -2339217.243
10 0 59388  19302.000000  0    6088874.471    644831.225  -3166585.381
10 0 59388  19422.000000  0    5642980.206    414462.425  -3938397.468
10 0 59388  19542.000000  0    5094866.410    185579.348  -4641185.583
10 0 59388  19662.000000  0    4454243.561    -36127.579  -5262720.773
10 0 59388  19782.000000  0    3732501.806   -245285.807  -5792217.794
10 0 59388  19902.000000  0    2942500.182   -436960.196  -6220513.295
10 0 59388  20022.000000  0    2098330.786   -606760.363  -6540213.729
99
